[{"OBJECT_NAME":"STARLINK-2658","OBJECT_ID":"2021-040AX","EPOCH":"2026-03-10T00:00:02.999808","MEAN_MOTION":15.25799654,"ECCENTRICITY":0.00012565,"INCLINATION":53.1397,"RA_OF_ASC_NODE":189.517,"ARG_OF_PERICENTER":100.8421,"MEAN_ANOMALY":323.7871,"EPHEMERIS_TYPE":0,"CLASSIFICATION_TYPE":"U","NORAD_CAT_ID":48473,"ELEMENT_SET_NO":999,"REV_AT_EPOCH":579,"BSTAR":0.059705291,"MEAN_MOTION_DOT":0.01715638,"MEAN_MOTION_DDOT":0},{"OBJECT_NAME":"COSMOS 2251 DEB","OBJECT_ID":"1993-036GV","EPOCH":"2026-03-09T11:43:36.136416","MEAN_MOTION":15.43449097,"ECCENTRICITY":0.00140641,"INCLINATION":73.9879,"RA_OF_ASC_NODE":98.5343,"ARG_OF_PERICENTER":278.4035,"MEAN_ANOMALY":81.558,"EPHEMERIS_TYPE":0,"CLASSIFICATION_TYPE":"U","NORAD_CAT_ID":34010,"ELEMENT_SET_NO":999,"REV_AT_EPOCH":90611,"BSTAR":0.0056310158,"MEAN_MOTION_DOT":0.00261542,"MEAN_MOTION_DDOT":0}]
